{"fetched_at":"2026-07-05T17:36:12.600Z","source":"https://celestrak.org/NORAD/elements/gp.php?GROUP=spire&FORMAT=JSON","constellation":"spire","records":[{"OBJECT_NAME":"LEMUR-2-MYRA","OBJECT_ID":"2025-276EC","EPOCH":"2026-07-05T03:12:45.235296","CLASSIFICATION_TYPE":"U","MEAN_MOTION":15.00508428,"ECCENTRICITY":0.00183848,"INCLINATION":97.5208,"RA_OF_ASC_NODE":256.4281,"ARG_OF_PERICENTER":84.695,"MEAN_ANOMALY":275.6371,"EPHEMERIS_TYPE":0,"NORAD_CAT_ID":66787,"ELEMENT_SET_NO":999,"REV_AT_EPOCH":3290,"BSTAR":0.00096903448,"MEAN_MOTION_DOT":0.0001221,"MEAN_MOTION_DDOT":0},{"OBJECT_NAME":"LEMUR-2 FIKRETDENGIZ","OBJECT_ID":"2026-004A","EPOCH":"2026-07-04T22:47:43.015488","CLASSIFICATION_TYPE":"U","MEAN_MOTION":14.88465087,"ECCENTRICITY":0.0010589,"INCLINATION":97.8023,"RA_OF_ASC_NODE":184.2361,"ARG_OF_PERICENTER":84.1955,"MEAN_ANOMALY":276.0469,"EPHEMERIS_TYPE":0,"NORAD_CAT_ID":67363,"ELEMENT_SET_NO":999,"REV_AT_EPOCH":2592,"BSTAR":0.00073092242,"MEAN_MOTION_DOT":0.00006741,"MEAN_MOTION_DDOT":0},{"OBJECT_NAME":"TWILIGHT-1 OBJECT B","OBJECT_ID":"2026-004B","EPOCH":"2026-07-04T17:06:46.186848","CLASSIFICATION_TYPE":"U","MEAN_MOTION":14.87770543,"ECCENTRICITY":0.00101943,"INCLINATION":97.8065,"RA_OF_ASC_NODE":184.0096,"ARG_OF_PERICENTER":75.3271,"MEAN_ANOMALY":284.9075,"EPHEMERIS_TYPE":0,"NORAD_CAT_ID":67364,"ELEMENT_SET_NO":999,"REV_AT_EPOCH":2589,"BSTAR":0.00031184346,"MEAN_MOTION_DOT":0.00002794,"MEAN_MOTION_DDOT":0},{"OBJECT_NAME":"LEMUR-2-MARIO-SOUSA","OBJECT_ID":"2026-004C","EPOCH":"2026-07-04T22:20:46.206240","CLASSIFICATION_TYPE":"U","MEAN_MOTION":14.88667918,"ECCENTRICITY":0.00101682,"INCLINATION":97.7994,"RA_OF_ASC_NODE":184.2129,"ARG_OF_PERICENTER":85.5003,"MEAN_ANOMALY":274.7375,"EPHEMERIS_TYPE":0,"NORAD_CAT_ID":67365,"ELEMENT_SET_NO":999,"REV_AT_EPOCH":2593,"BSTAR":0.00079122958,"MEAN_MOTION_DOT":0.00007339,"MEAN_MOTION_DDOT":0},{"OBJECT_NAME":"LEMUR-2-SONNENBLUME","OBJECT_ID":"2026-004E","EPOCH":"2026-07-04T06:14:11.582592","CLASSIFICATION_TYPE":"U","MEAN_MOTION":14.88408585,"ECCENTRICITY":0.00097148,"INCLINATION":97.7989,"RA_OF_ASC_NODE":183.5297,"ARG_OF_PERICENTER":88.2038,"MEAN_ANOMALY":272.0292,"EPHEMERIS_TYPE":0,"NORAD_CAT_ID":67367,"ELEMENT_SET_NO":999,"REV_AT_EPOCH":2583,"BSTAR":0.00039859553,"MEAN_MOTION_DOT":0.00003644,"MEAN_MOTION_DDOT":0},{"OBJECT_NAME":"LEMUR-2-WOBLER","OBJECT_ID":"2026-004F","EPOCH":"2026-07-04T17:18:49.522464","CLASSIFICATION_TYPE":"U","MEAN_MOTION":14.88647395,"ECCENTRICITY":0.00099057,"INCLINATION":97.8041,"RA_OF_ASC_NODE":184.1241,"ARG_OF_PERICENTER":78.6329,"MEAN_ANOMALY":281.6001,"EPHEMERIS_TYPE":0,"NORAD_CAT_ID":67368,"ELEMENT_SET_NO":999,"REV_AT_EPOCH":2590,"BSTAR":0.00072852761,"MEAN_MOTION_DOT":0.00006749,"MEAN_MOTION_DDOT":0},{"OBJECT_NAME":"LEMUR-2-GRAM-E-SUE","OBJECT_ID":"2026-004H","EPOCH":"2026-07-04T23:33:40.054176","CLASSIFICATION_TYPE":"U","MEAN_MOTION":14.88557879,"ECCENTRICITY":0.00088505,"INCLINATION":97.7977,"RA_OF_ASC_NODE":184.2565,"ARG_OF_PERICENTER":88.4027,"MEAN_ANOMALY":271.8204,"EPHEMERIS_TYPE":0,"NORAD_CAT_ID":67370,"ELEMENT_SET_NO":999,"REV_AT_EPOCH":2594,"BSTAR":0.00039566526,"MEAN_MOTION_DOT":0.0000363,"MEAN_MOTION_DDOT":0},{"OBJECT_NAME":"LEMUR-2-KATIE","OBJECT_ID":"2026-004AA","EPOCH":"2026-07-04T19:34:33.350592","CLASSIFICATION_TYPE":"U","MEAN_MOTION":14.90185004,"ECCENTRICITY":0.0004345,"INCLINATION":97.8042,"RA_OF_ASC_NODE":184.6098,"ARG_OF_PERICENTER":57.7344,"MEAN_ANOMALY":302.4295,"EPHEMERIS_TYPE":0,"NORAD_CAT_ID":67387,"ELEMENT_SET_NO":999,"REV_AT_EPOCH":2593,"BSTAR":0.00092602467,"MEAN_MOTION_DOT":0.00008924,"MEAN_MOTION_DDOT":0},{"OBJECT_NAME":"LEMUR-2-HCS-BAZUS","OBJECT_ID":"2026-004AB","EPOCH":"2026-07-04T22:45:47.839968","CLASSIFICATION_TYPE":"U","MEAN_MOTION":14.90225147,"ECCENTRICITY":0.00037341,"INCLINATION":97.8028,"RA_OF_ASC_NODE":184.7206,"ARG_OF_PERICENTER":55.9351,"MEAN_ANOMALY":304.2221,"EPHEMERIS_TYPE":0,"NORAD_CAT_ID":67388,"ELEMENT_SET_NO":999,"REV_AT_EPOCH":2595,"BSTAR":0.00044477658,"MEAN_MOTION_DOT":0.00004259,"MEAN_MOTION_DDOT":0}]}
